{
  "type": "FeatureCollection",
  "features": [
    {
      "type": "Feature",
      "properties": { "name": "Azuay", "dpa_despro": "Azuay", "capital": "Cuenca" },
      "geometry": {
        "type": "Polygon",
        "coordinates": [[
          [-79.50, -2.75], [-78.80, -2.70], [-78.60, -3.10], [-79.00, -3.50], [-79.60, -3.30], [-79.80, -2.90], [-79.50, -2.75]
        ]]
      }
    },
    {
      "type": "Feature",
      "properties": { "name": "Bolívar", "dpa_despro": "Bolívar", "capital": "Guaranda" },
      "geometry": {
        "type": "Polygon",
        "coordinates": [[
          [-79.20, -1.30], [-78.90, -1.25], [-78.80, -1.80], [-79.25, -2.00], [-79.35, -1.50], [-79.20, -1.30]
        ]]
      }
    },
    {
      "type": "Feature",
      "properties": { "name": "Cañar", "dpa_despro": "Cañar", "capital": "Azogues" },
      "geometry": {
        "type": "Polygon",
        "coordinates": [[
          [-79.40, -2.30], [-78.70, -2.20], [-78.60, -2.70], [-79.50, -2.75], [-79.60, -2.40], [-79.40, -2.30]
        ]]
      }
    },
    {
      "type": "Feature",
      "properties": { "name": "Carchi", "dpa_despro": "Carchi", "capital": "Tulcán" },
      "geometry": {
        "type": "Polygon",
        "coordinates": [[
          [-78.40, 0.60], [-77.60, 0.80], [-77.70, 0.50], [-78.00, 0.30], [-78.45, 0.40], [-78.40, 0.60]
        ]]
      }
    },
    {
      "type": "Feature",
      "properties": { "name": "Chimborazo", "dpa_despro": "Chimborazo", "capital": "Riobamba" },
      "geometry": {
        "type": "Polygon",
        "coordinates": [[
          [-78.90, -1.50], [-78.40, -1.55], [-78.45, -2.30], [-78.80, -2.35], [-79.10, -2.00], [-78.90, -1.50]
        ]]
      }
    },
    {
      "type": "Feature",
      "properties": { "name": "Cotopaxi", "dpa_despro": "Cotopaxi", "capital": "Latacunga" },
      "geometry": {
        "type": "Polygon",
        "coordinates": [[
          [-79.30, -0.60], [-78.30, -0.65], [-78.40, -1.15], [-79.10, -1.25], [-79.40, -0.90], [-79.30, -0.60]
        ]]
      }
    },
    {
      "type": "Feature",
      "properties": { "name": "El Oro", "dpa_despro": "El Oro", "capital": "Machala" },
      "geometry": {
        "type": "Polygon",
        "coordinates": [[
          [-80.20, -3.20], [-79.50, -3.25], [-79.40, -3.80], [-80.10, -3.75], [-80.30, -3.40], [-80.20, -3.20]
        ]]
      }
    },
    {
      "type": "Feature",
      "properties": { "name": "Esmeraldas", "dpa_despro": "Esmeraldas", "capital": "Esmeraldas" },
      "geometry": {
        "type": "Polygon",
        "coordinates": [[
          [-80.10, 0.80], [-78.50, 1.40], [-78.55, 0.40], [-79.50, 0.00], [-80.00, 0.40], [-80.10, 0.80]
        ]]
      }
    },
    {
      "type": "Feature",
      "properties": { "name": "Galápagos", "dpa_despro": "Galápagos", "capital": "Puerto Baquerizo Moreno" },
      "geometry": {
        "type": "Polygon",
        "coordinates": [[
          [-91.50, -0.30], [-89.50, -0.30], [-89.50, 0.50], [-91.50, 0.50], [-91.50, -0.30]
        ]]
      }
    },
    {
      "type": "Feature",
      "properties": { "name": "Guayas", "dpa_despro": "Guayas", "capital": "Guayaquil" },
      "geometry": {
        "type": "Polygon",
        "coordinates": [[
          [-80.40, -1.70], [-79.50, -1.60], [-79.50, -2.70], [-80.30, -2.90], [-80.60, -2.30], [-80.40, -1.70]
        ]]
      }
    },
    {
      "type": "Feature",
      "properties": { "name": "Imbabura", "dpa_despro": "Imbabura", "capital": "Ibarra" },
      "geometry": {
        "type": "Polygon",
        "coordinates": [[
          [-78.60, 0.20], [-78.00, 0.35], [-77.90, 0.10], [-78.40, 0.10], [-78.65, 0.15], [-78.60, 0.20]
        ]]
      }
    },
    {
      "type": "Feature",
      "properties": { "name": "Loja", "dpa_despro": "Loja", "capital": "Loja" },
      "geometry": {
        "type": "Polygon",
        "coordinates": [[
          [-80.10, -3.80], [-79.10, -3.50], [-79.10, -4.50], [-79.70, -4.60], [-80.40, -4.30], [-80.10, -3.80]
        ]]
      }
    },
    {
      "type": "Feature",
      "properties": { "name": "Los Ríos", "dpa_despro": "Los Ríos", "capital": "Babahoyo" },
      "geometry": {
        "type": "Polygon",
        "coordinates": [[
          [-79.80, -0.80], [-79.30, -0.80], [-79.30, -2.00], [-79.70, -2.05], [-79.80, -0.80]
        ]]
      }
    },
    {
      "type": "Feature",
      "properties": { "name": "Manabí", "dpa_despro": "Manabí", "capital": "Portoviejo" },
      "geometry": {
        "type": "Polygon",
        "coordinates": [[
          [-80.90, 0.10], [-79.80, 0.00], [-79.70, -1.70], [-80.80, -1.80], [-80.90, 0.10]
        ]]
      }
    },
    {
      "type": "Feature",
      "properties": { "name": "Morona Santiago", "dpa_despro": "Morona Santiago", "capital": "Macas" },
      "geometry": {
        "type": "Polygon",
        "coordinates": [[
          [-78.60, -1.80], [-77.00, -2.00], [-77.20, -3.50], [-78.50, -3.30], [-78.60, -1.80]
        ]]
      }
    },
    {
      "type": "Feature",
      "properties": { "name": "Napo", "dpa_despro": "Napo", "capital": "Tena" },
      "geometry": {
        "type": "Polygon",
        "coordinates": [[
          [-78.20, -0.20], [-77.20, -0.30], [-77.40, -1.20], [-78.20, -1.00], [-78.20, -0.20]
        ]]
      }
    },
    {
      "type": "Feature",
      "properties": { "name": "Orellana", "dpa_despro": "Orellana", "capital": "Puerto Francisco de Orellana" },
      "geometry": {
        "type": "Polygon",
        "coordinates": [[
          [-77.30, -0.30], [-75.20, -0.40], [-75.50, -1.40], [-77.40, -1.10], [-77.30, -0.30]
        ]]
      }
    },
    {
      "type": "Feature",
      "properties": { "name": "Pastaza", "dpa_despro": "Pastaza", "capital": "Puyo" },
      "geometry": {
        "type": "Polygon",
        "coordinates": [[
          [-78.10, -1.20], [-75.60, -1.50], [-76.20, -2.60], [-78.00, -2.00], [-78.10, -1.20]
        ]]
      }
    },
    {
      "type": "Feature",
      "properties": { "name": "Pichincha", "dpa_despro": "Pichincha", "capital": "Quito" },
      "geometry": {
        "type": "Polygon",
        "coordinates": [[
          [-79.20, 0.20], [-78.10, 0.30], [-78.20, -0.50], [-78.90, -0.50], [-79.20, 0.20]
        ]]
      }
    },
    {
      "type": "Feature",
      "properties": { "name": "Santa Elena", "dpa_despro": "Santa Elena", "capital": "Santa Elena" },
      "geometry": {
        "type": "Polygon",
        "coordinates": [[
          [-81.00, -1.80], [-80.50, -1.80], [-80.40, -2.40], [-81.00, -2.40], [-81.00, -1.80]
        ]]
      }
    },
    {
      "type": "Feature",
      "properties": { "name": "Santo Domingo de los Tsáchilas", "dpa_despro": "Santo Domingo de los Tsáchilas", "capital": "Santo Domingo" },
      "geometry": {
        "type": "Polygon",
        "coordinates": [[
          [-79.50, -0.10], [-79.00, -0.10], [-79.00, -0.50], [-79.50, -0.50], [-79.50, -0.10]
        ]]
      }
    },
    {
      "type": "Feature",
      "properties": { "name": "Sucumbíos", "dpa_despro": "Sucumbíos", "capital": "Nueva Loja" },
      "geometry": {
        "type": "Polygon",
        "coordinates": [[
          [-77.80, 0.60], [-75.20, 0.40], [-75.30, -0.30], [-77.70, -0.20], [-77.80, 0.60]
        ]]
      }
    },
    {
      "type": "Feature",
      "properties": { "name": "Tungurahua", "dpa_despro": "Tungurahua", "capital": "Ambato" },
      "geometry": {
        "type": "Polygon",
        "coordinates": [[
          [-78.80, -1.15], [-78.20, -1.20], [-78.30, -1.50], [-78.70, -1.50], [-78.80, -1.15]
        ]]
      }
    },
    {
      "type": "Feature",
      "properties": { "name": "Zamora Chinchipe", "dpa_despro": "Zamora Chinchipe", "capital": "Zamora" },
      "geometry": {
        "type": "Polygon",
        "coordinates": [[
          [-79.20, -3.50], [-78.50, -3.50], [-78.70, -4.90], [-79.40, -4.70], [-79.20, -3.50]
        ]]
      }
    }
  ]
}
